{"type":"Feature","properties":{"name":"Andhra Pradesh","source":"OpenStreetMap via Overpass"},"geometry":{"type":"Polygon","coordinates":[[[83.3562576,17.7586198],[83.3853614,17.7775481],[83.390227,17.7919069],[83.4097722,17.8103401],[83.4165488,17.8233097],[83.4123847,17.8484393],[83.4440428,17.8734912],[83.4551525,17.8877248],[83.4581968,17.9037643],[83.5316652,17.9510551],[83.5581198,17.9821543],[83.5663837,18.0075164],[83.6070299,18.0395136],[83.7355721,18.1207263],[83.8599421,18.174163],[83.8905796,18.1955899],[83.9473352,18.212116],[84.0707436,18.2764551],[84.1271907,18.3142266],[84.1538143,18.3770693],[84.2507333,18.4709087],[84.3555808,18.5567687],[84.3593627,18.5797384],[84.3692976,18.5955311],[84.4397619,18.6610534],[84.4537818,18.6944491],[84.4915688,18.7401349],[84.5527845,18.7923838],[84.5583558,18.8177195],[84.5748407,18.8372928],[84.5956171,18.8795645],[84.6784437,18.9621378],[84.7539085,19.0613138],[84.7658033,19.0788084],[84.7033453,19.1173948],[84.6979809,19.126376],[84.7062099,19.1394517],[84.7015536,19.1470129],[84.7109413,19.1462831],[84.7125935,19.1578978],[84.6709549,19.1659141],[84.667452,19.1298883],[84.6443796,19.1328532],[84.6297669,19.1264521],[84.5959496,19.1322957],[84.6109056,19.100546],[84.6240592,19.1008907],[84.6274495,19.0850745],[84.6479201,19.0950105],[84.6594643,19.0933072],[84.6709013,19.0759591],[84.663198,19.0746511],[84.6608591,19.0632435],[84.6416116,19.067259],[84.6372235,19.0599073],[84.6183515,19.0658699],[84.6223426,19.0596842],[84.6134805,19.0565811],[84.600842,19.0246647],[84.5917118,19.0228796],[84.5817876,19.0300606],[84.5832466,19.0424036],[84.5774102,19.0403955],[84.5830214,19.0492998],[84.5830321,19.0731707],[84.5737195,19.0676444],[84.5728612,19.0736169],[84.5565641,19.0566115],[84.5262444,19.046014],[84.5163846,19.0483464],[84.4945514,19.0291883],[84.4841229,19.0183659],[84.4828356,19.0039822],[84.4826102,19.0165909],[84.4789517,18.9884509],[84.4424522,19.0033533],[84.421134,19.0221594],[84.4219923,19.0127668],[84.4323993,19.0066095],[84.4322705,18.9950248],[84.44345,18.9902973],[84.4524729,18.976175],[84.4311225,18.9691642],[84.4324422,18.95918],[84.425962,18.9527164],[84.4274211,18.932167],[84.4377208,18.9324309],[84.4385791,18.9210135],[84.42873,18.909636],[84.4181192,18.9183544],[84.4190204,18.8973847],[84.4008887,18.895314],[84.3933463,18.9047132],[84.3784869,18.9033836],[84.3987429,18.8896295],[84.3932712,18.8764022],[84.3893766,18.8837114],[84.3831646,18.8866349],[84.3809438,18.8818333],[84.3606233,18.8947455],[84.3628228,18.8868989],[84.3836474,18.8739556],[84.3736267,18.8608895],[84.3623507,18.8612448],[84.3369341,18.8901472],[84.3470192,18.8484011],[84.3637669,18.836582],[84.3521476,18.8315048],[84.3494868,18.8201821],[84.3310439,18.8179581],[84.3445516,18.8018205],[84.3268061,18.7989157],[84.3213344,18.7865447],[84.2886543,18.8046744],[84.2865515,18.7922936],[84.2619502,18.7832841],[84.2430246,18.7887995],[84.2407608,18.7970774],[84.2263091,18.7987939],[84.2145717,18.7951984],[84.2184555,18.7901301],[84.1955656,18.7916181],[84.1901851,18.7777482],[84.1592646,18.7878651],[84.1403496,18.7772708],[84.1419268,18.7643394],[84.1370021,18.7612725],[84.1230118,18.768027],[84.0895378,18.7568016],[84.0894627,18.7640144],[84.0764058,18.7644816],[84.0679729,18.7821668],[84.0597975,18.7825325],[84.0598512,18.7990986],[84.0463114,18.8017697],[84.0457535,18.8127991],[84.0384793,18.8164145],[84.033308,18.8116414],[84.0154338,18.8171051],[84.0158629,18.8086149],[83.9653623,18.814617],[83.9500952,18.8051416],[83.9417159,18.8083102],[83.9423275,18.8154396],[83.9316308,18.8159067],[83.915602,18.8279608],[83.8996911,18.8243965],[83.8931894,18.8144849],[83.8909323,18.8284318],[83.8513555,18.8600331],[83.8447953,18.8733097],[83.8479486,18.9125794],[83.8246115,18.9178897],[83.8288329,18.9304295],[83.8210809,18.9420101],[83.8224448,18.961574],[83.794719,19.0180182],[83.7777257,19.0174733],[83.7819528,19.0084354],[83.7514508,18.9987275],[83.7460971,18.9897799],[83.759079,18.9505753],[83.7696361,18.9549995],[83.7846136,18.9336284],[83.7879181,18.9158476],[83.7775111,18.9114832],[83.7693357,18.9142642],[83.7631559,18.9273769],[83.7539184,18.9249615],[83.7338769,18.9689004],[83.7332117,18.9880147],[83.713814,18.9926509],[83.708514,19.0061328],[83.723706,19.0101497],[83.7298643,19.0219363],[83.7000382,19.0254964],[83.6851573,19.0585687],[83.6612105,19.0806132],[83.6627769,19.0990456],[83.6470914,19.1182666],[83.6550307,19.1298225],[83.6369419,19.1317484],[83.6314916,19.140668],[83.6376607,19.1532561],[83.6259126,19.1627219],[83.6272859,19.1508034],[83.6170721,19.1376678],[83.6069011,19.1390463],[83.598361,19.1306537],[83.5979318,19.1178003],[83.6104631,19.0964299],[83.5855239,19.0864128],[83.5844618,19.0574735],[83.5638571,19.0573619],[83.5605848,19.0640192],[83.5669309,19.0719995],[83.5602522,19.0870718],[83.54918,19.0805321],[83.5575378,19.0560842],[83.5418415,19.0415821],[83.5366702,19.0095411],[83.5008037,19.0208206],[83.4964049,19.0356693],[83.5086036,19.035436],[83.5147834,19.0285088],[83.5192358,19.0392393],[83.5115754,19.0702504],[83.5006535,19.0605461],[83.4809446,19.0785042],[83.4864056,19.0876092],[83.4829402,19.0927699],[83.4679842,19.0931348],[83.4671688,19.0873912],[83.4763205,19.0857385],[83.478359,19.0793457],[83.4662676,19.0799034],[83.4623837,19.0637505],[83.4691858,19.060972],[83.4710419,19.0426267],[83.4833479,19.0339553],[83.4826612,19.0151201],[83.4777367,19.0073095],[83.4500026,19.0098251],[83.45541,18.991251],[83.4677696,18.9910785],[83.4643471,18.9799796],[83.4699047,18.968667],[83.4616864,18.9547458],[83.4465158,18.9577189],[83.4387803,18.9765504],[83.4153163,18.9892118],[83.4199512,18.9999449],[83.4005964,19.0094498],[83.3845782,19.0011419],[83.3725834,19.0022577],[83.365277,19.0098657],[83.3676052,19.0163068],[83.3428323,19.0180211],[83.3388948,18.9969725],[83.3268893,19.0023186],[83.3106887,18.9989609],[83.3189714,18.9730907],[83.3349252,18.9686568],[83.3324575,18.9582972],[83.3389485,18.9537108],[83.3375645,18.9459683],[83.3272004,18.94471],[83.3262241,18.9323193],[83.3354938,18.9250325],[83.348465,18.9264128],[83.3437443,18.9412598],[83.3502674,18.9433908],[83.3517909,18.9673987],[83.3669078,18.9633503],[83.3713066,18.9428429],[83.387475,18.932918],[83.3706736,18.9262605],[83.3699655,18.9419093],[83.3523488,18.9434923],[83.3597302,18.9147311],[83.3702016,18.9079511],[83.3820677,18.9142033],[83.3923888,18.9087631],[83.3783769,18.8970904],[83.3818531,18.8917105],[83.3973026,18.8786153],[83.4147048,18.8746967],[83.4049201,18.8619454],[83.4054565,18.8424105],[83.3784628,18.8306518],[83.3670366,18.8436492],[83.3283484,18.8179784],[83.3298397,18.8065939],[83.3092832,18.8094274],[83.2847357,18.7980931],[83.2754445,18.7826239],[83.2816028,18.7746501],[83.2713354,18.7644715],[83.2245684,18.7751377],[83.2271755,18.7538859],[83.2075739,18.7463273],[83.2121444,18.7303149],[83.2271755,18.7538859],[83.2081747,18.7494362],[83.1932401,18.7532154],[83.1778335,18.7709119],[83.1578457,18.7675292],[83.1383514,18.785082],[83.115145,18.7680168],[83.1225157,18.7576753],[83.0728304,18.7055719],[83.0580246,18.6654064],[83.0134356,18.6462858],[83.0197227,18.6351337],[82.9997134,18.6196395],[83.0006468,18.6078654],[83.0150664,18.6054454],[83.0136502,18.5940668],[83.0242342,18.5894145],[83.0525958,18.6010323],[83.0531108,18.5881587],[83.0401933,18.5865418],[83.0299044,18.5735348],[83.0453217,18.5438866],[83.0621767,18.5421472],[83.0815637,18.5538648],[83.0951786,18.5461447],[83.0552244,18.4956451],[83.05516,18.4855312],[83.0211282,18.4558575],[83.0411696,18.4409577],[83.0426287,18.4243669],[83.059591,18.4369069],[83.0672621,18.430006],[83.0577457,18.419145],[83.0771327,18.4033157],[83.0544734,18.3798387],[83.0434549,18.3788816],[83.0208385,18.3914961],[83.0050671,18.3828422],[82.9964894,18.3857388],[82.9873109,18.3791871],[82.9839742,18.3663476],[82.9667759,18.3586395],[82.9609394,18.3658487],[82.9344177,18.3632013],[82.9233026,18.3747275],[82.9132175,18.3686183],[82.8928756,18.3886557],[82.8996563,18.4011575],[82.8971672,18.4225754],[82.8514623,18.4207025],[82.8453254,18.4340163],[82.817173,18.4501787],[82.8037834,18.4494866],[82.783184,18.4293342],[82.7883338,18.4101973],[82.7992773,18.407347],[82.791574,18.3963014],[82.7939558,18.3859678],[82.7831411,18.3819564],[82.7908015,18.3630791],[82.7750945,18.3401363],[82.7595377,18.3394235],[82.7553695,18.3302628],[82.7428919,18.3300489],[82.7345771,18.3202766],[82.7151632,18.322609],[82.7091551,18.3134424],[82.6946282,18.3119145],[82.6855302,18.3037456],[82.6766681,18.3064143],[82.6671409,18.2983265],[82.6423359,18.3017287],[82.6436019,18.2895253],[82.6527428,18.2804588],[82.6424861,18.2665626],[82.652024,18.2501487],[82.6258564,18.246185],[82.6373791,18.2366679],[82.652024,18.2501487],[82.6235175,18.2467149],[82.6151705,18.2576783],[82.5972533,18.2649325],[82.5963306,18.2744685],[82.5875544,18.2766894],[82.5982404,18.305029],[82.5820827,18.3150517],[82.594614,18.3282106],[82.6093339,18.3278033],[82.6022529,18.3514299],[82.6151275,18.3510633],[82.6209211,18.3599021],[82.6062011,18.3663782],[82.605257,18.3823433],[82.5989055,18.3801849],[82.5950002,18.3890222],[82.5835418,18.3872303],[82.5757312,18.396108],[82.5628995,18.3996101],[82.5553894,18.3940312],[82.5411415,18.4008317],[82.5389099,18.4065733],[82.5486517,18.4132105],[82.5431585,18.421354],[82.5617837,18.4476547],[82.5423217,18.4573637],[82.5394249,18.4439296],[82.5287175,18.4636937],[82.519083,18.4662581],[82.5342321,18.4776757],[82.5280523,18.4810947],[82.5331163,18.4888686],[82.5266361,18.495462],[82.5323438,18.5112523],[82.5152206,18.5181703],[82.5048566,18.5136533],[82.481575,18.5396347],[82.4930548,18.5452089],[82.4821114,18.5484435],[82.4447644,18.5143248],[82.4340892,18.4983515],[82.437619,18.4936305],[82.4033618,18.4633884],[82.3824405,18.4326523],[82.3657036,18.422209],[82.3863458,18.3867416],[82.3855519,18.3674168],[82.3393535,18.3259496],[82.3573565,18.3160396],[82.374866,18.3284551],[82.3893392,18.3284041],[82.3948753,18.3153776],[82.3926973,18.2978783],[82.3768186,18.2804588],[82.3443961,18.2802346],[82.3340535,18.2525635],[82.3364997,18.2407031],[82.3247623,18.2319805],[82.3371005,18.223502],[82.3114586,18.2043424],[82.3158359,18.1840594],[82.3355555,18.1728264],[82.3531508,18.1717866],[82.3723554,18.1470752],[82.362957,18.1347386],[82.3394608,18.148421],[82.3422932,18.1365943],[82.3339891,18.120219],[82.3519492,18.0761839],[82.3440742,18.057763],[82.3342788,18.0512652],[82.3232388,18.0598643],[82.3208141,18.0448897],[82.3080414,18.0449764],[82.3107183,18.0537542],[82.2991794,18.0554475],[82.3052573,18.0682334],[82.3010248,18.0698704],[82.2728777,18.0561105],[82.2625565,18.0407071],[82.2739291,18.0186912],[82.2645092,17.9961623],[82.2441673,17.9939174],[82.2386741,18.0016724],[82.2215938,18.0020805],[82.2050929,18.0179362],[82.1799445,18.0191197],[82.1841717,18.0286079],[82.1690225,18.050949],[82.1474361,18.0515611],[82.1376085,18.0436451],[82.1334886,18.0597011],[82.1214938,18.0636791],[82.1021175,18.0596399],[82.077291,18.0747764],[82.0650816,18.0554985],[82.0409417,18.0567226],[82.0325517,18.0687587],[82.0080685,18.0572326],[82.0100426,18.0305667],[81.9948721,18.0268123],[81.9629645,17.9990704],[81.9191264,17.9905705],[81.9028186,17.9767738],[81.8763827,17.9673033],[81.8111514,17.9521166],[81.790788,17.9214128],[81.7245483,17.8764908],[81.7102145,17.8731416],[81.7021464,17.9004234],[81.6873836,17.8851494],[81.6664409,17.8849043],[81.6443824,17.8459373],[81.6299628,17.8324561],[81.6230105,17.8331098],[81.6182899,17.823223],[81.5772628,17.8375219],[81.5631866,17.8258377],[81.4921402,17.8122733],[81.473515,17.8377465],[81.4435815,17.8247142],[81.4331531,17.8315676],[81.4158153,17.8132948],[81.397102,17.8196905],[81.3918267,17.8158261],[81.3929964,17.7953958],[81.3874911,17.7956842],[81.3711833,17.8083509],[81.3244056,17.8152968],[81.2539375,17.8121469],[81.1919419,17.8469358],[81.159383,17.852734],[81.0889132,17.8108089],[81.0857407,17.79807],[81.0962333,17.7741313],[81.1045074,17.7720132],[81.05846,17.733287],[81.0504015,17.7341283],[81.0404642,17.7476919],[81.0155861,17.7447984],[80.9914634,17.7501831],[80.9729629,17.7794715],[80.9548938,17.773934],[80.946306,17.7603013],[80.9191005,17.7567762],[80.9173132,17.748223],[80.905756,17.7465245],[80.9000077,17.7520534],[80.9027414,17.7419669],[80.8914806,17.7412723],[80.8937813,17.7029129],[80.8854945,17.6837168],[80.9062489,17.6802914],[80.9027824,17.6586931],[80.91092,17.6545188],[80.8889222,17.6321617],[80.8650613,17.6351064],[80.8569288,17.6304234],[80.8504057,17.6197688],[80.8556199,17.6030288],[80.881176,17.5970258],[80.8972263,17.6014438],[80.9674358,17.5988257],[80.9987639,17.5645836],[81.0198354,17.520104],[81.0801422,17.5150497],[81.0986924,17.5043269],[81.1265874,17.5267746],[81.1385822,17.5161547],[81.1423373,17.4884563],[81.1596965,17.4842505],[81.1482596,17.4632918],[81.1761224,17.4640082],[81.1724746,17.4490041],[81.1906922,17.4366601],[81.2025475,17.4340602],[81.2052727,17.4495466],[81.2117207,17.4418803],[81.2454522,17.4329956],[81.2686479,17.4183473],[81.3111234,17.4094308],[81.3226246,17.3745897],[81.3011241,17.3407661],[81.2751388,17.3177015],[81.2466001,17.3256085],[81.2361717,17.3200368],[81.189512,17.3235806],[81.1766803,17.2876783],[81.1864523,17.2493396],[81.1706681,17.2313577],[81.079457,17.2154636],[81.0550386,17.2248267],[81.0495329,17.2074696],[81.0311544,17.1906611],[80.9942452,17.1917941],[80.9677771,17.1988472],[80.9409599,17.2196458],[80.9189191,17.2200354],[80.9186411,17.1896874],[80.9264731,17.1840911],[80.9239304,17.1578289],[80.9127509,17.1537284],[80.8794594,17.1608531],[80.8783221,17.1352336],[80.8678937,17.1235965],[80.8768524,17.1051715],[80.8675158,17.0786495],[80.8770341,17.070514],[80.8450627,17.0401677],[80.8290338,17.0528972],[80.7484778,17.071187],[80.7392205,17.0788166],[80.6993027,17.0821135],[80.6954924,17.0742488],[80.6737876,17.0666925],[80.6540251,17.0694002],[80.6503129,17.0720668],[80.6577801,17.0906704],[80.6705689,17.1011713],[80.6419444,17.1160192],[80.6455278,17.1235452],[80.6187916,17.1282617],[80.5799639,17.1533901],[80.5628943,17.1332651],[80.527854,17.1192491],[80.5139172,17.1222636],[80.5042291,17.0937777],[80.510087,17.0872965],[80.5055165,17.0689079],[80.4907322,17.0513484],[80.4713452,17.0506817],[80.464822,17.0302891],[80.4385471,17.0378186],[80.4170787,17.0736873],[80.4190694,17.0921825],[80.4093861,17.0917164],[80.3857043,17.0667892],[80.3984856,17.0524049],[80.3957713,17.0358491],[80.4075193,17.0257959],[80.4070258,17.0158242],[80.3877675,17.0091762],[80.3633916,16.9760657],[80.4498982,16.9550083],[80.4936719,16.9279236],[80.4991007,16.9561987],[80.5261266,16.9479578],[80.5353856,16.9613709],[80.6024663,16.918919],[80.5870986,16.9034424],[80.5957246,16.8971907],[80.5955113,16.8847329],[80.5682587,16.8697076],[80.5702972,16.8495213],[80.5629051,16.8335741],[80.5954027,16.8019734],[80.6129229,16.7935511],[80.5973124,16.7923083],[80.5706191,16.7678712],[80.5520475,16.7749592],[80.5056023,16.7781642],[80.4851746,16.7915585],[80.4646182,16.7953178],[80.4643178,16.819813],[80.4286337,16.838267],[80.4274964,16.8499629],[80.3842056,16.865344],[80.3785515,16.8518214],[80.4079807,16.8488744],[80.40429,16.8323829],[80.381062,16.8171941],[80.3736913,16.8283676],[80.3797531,16.8407726],[80.3732729,16.8402899],[80.3739381,16.8525812],[80.3405714,16.8596969],[80.3440261,16.874492],[80.3218133,16.8788132],[80.3239632,16.9067581],[80.3117034,16.9168834],[80.3166622,16.9486865],[80.3050375,16.953941],[80.3066039,16.974034],[80.2904785,16.9811245],[80.2922702,16.9982392],[80.2824855,17.007945],[80.2646863,16.997562],[80.2404499,17.0024253],[80.2260733,17.0155575],[80.223037,17.0082733],[80.2101087,17.0112794],[80.201869,17.0178453],[80.2039826,17.0384546],[80.1965153,17.0440964],[80.1872671,17.0199484],[80.170235,17.0165844],[80.1678207,17.0055681],[80.1533961,17.0069704],[80.1403069,16.990349],[80.0956947,16.9906352],[80.0912702,16.9685993],[80.0547938,16.9713277],[80.0503135,16.9377562],[80.0399923,16.9191477],[80.0172901,16.9151753],[79.9989867,16.8653954],[80.0170541,16.8544911],[80.0466656,16.8535464],[80.0485325,16.8330298],[80.0731101,16.8173975],[80.0694334,16.796507],[80.0542883,16.7666506],[80.0526979,16.7415733],[80.0301389,16.7143971],[79.9976934,16.7021807],[79.9628317,16.6431291],[79.9334489,16.6314366],[79.908454,16.6347634],[79.8921483,16.6527501],[79.8865026,16.6842779],[79.8783213,16.6969711],[79.8504113,16.705965],[79.8165966,16.6922672],[79.7922149,16.7258072],[79.7760986,16.7315085],[79.7432293,16.7188268],[79.7243002,16.6916908],[79.6805736,16.6943961],[79.6612852,16.6864632],[79.6350963,16.6610339],[79.5984295,16.673424],[79.5750335,16.6496949],[79.5408146,16.6317741],[79.5031302,16.6365771],[79.4842026,16.6235665],[79.4477774,16.6201408],[79.4398567,16.6137077],[79.433283,16.5913438],[79.4175015,16.5800395],[79.3405051,16.5830025],[79.3089244,16.5747578],[79.2893145,16.561822],[79.2587169,16.5672367],[79.2480364,16.5346543],[79.2239982,16.5189688],[79.2147126,16.4877968],[79.2335104,16.4601022],[79.2162484,16.4534932],[79.2110742,16.4445018],[79.2107084,16.356873],[79.2342633,16.3349961],[79.2301961,16.2810605],[79.2174322,16.2284212],[79.1595005,16.2100902],[79.122238,16.2327176],[79.0992728,16.223948],[79.0840411,16.2309684],[79.0714415,16.2274404],[79.0522514,16.2394344],[79.011104,16.2416867],[78.9880256,16.2124676],[78.9308645,16.1996449],[78.9060445,16.184173],[78.904966,16.1751534],[78.9245939,16.1357198],[78.9221104,16.1046895],[78.8955737,16.0859626],[78.8889007,16.0855186],[78.8727465,16.1441848],[78.8560311,16.1491549],[78.8344268,16.1457687],[78.8401494,16.0789729],[78.8191827,16.0492394],[78.7839968,16.0215011],[78.7364389,16.0098168],[78.7232405,16.0210473],[78.6817851,16.0345197],[78.6504148,16.0791105],[78.6277932,16.0878311],[78.6022519,16.0845923],[78.5877486,16.0642519],[78.5506987,16.0427199],[78.4751379,16.0688363],[78.4073853,16.0749601],[78.384608,16.0650526],[78.3642447,16.046463],[78.3485055,16.0478962],[78.3279705,16.0378533],[78.3221061,16.017259],[78.3147955,16.012816],[78.2992172,16.0119085],[78.2708072,16.0269644],[78.2596063,16.025562],[78.2556581,16.0127026],[78.2600256,15.9968703],[78.2515093,15.9785209],[78.2521605,15.9364473],[78.1851039,15.9115199],[78.1801297,15.8999493],[78.190198,15.8926429],[78.1763145,15.8763957],[78.1764582,15.8582973],[78.1359029,15.8551265],[78.1302488,15.8508744],[78.1338858,15.8366517],[78.0837393,15.8413067],[78.0715299,15.8506783],[78.0714333,15.862227],[78.0559301,15.8665512],[78.0563271,15.8749928],[78.0469072,15.875096],[78.0451476,15.9044739],[78.0320048,15.9077034],[78.0088842,15.861969],[77.9754746,15.8836818],[77.9375481,15.8837231],[77.8895497,15.9067314],[77.8776038,15.9053826],[77.8571233,15.8836002],[77.8377981,15.8853877],[77.8039849,15.8745078],[77.7824521,15.8765511],[77.768687,15.8861068],[77.7469182,15.8856837],[77.7248919,15.8960748],[77.6921475,15.8836095],[77.65818,15.8860242],[77.611796,15.9188218],[77.5933356,15.9129726],[77.580914,15.9194703],[77.4665248,15.9345308],[77.4274539,15.9483614],[77.3769733,15.9403899],[77.356402,15.9500796],[77.3263263,15.9495694],[77.299154,15.9581593],[77.2854862,15.9532039],[77.2500014,15.9649394],[77.2355604,15.9577187],[77.1581197,15.950766],[77.0740056,15.911356],[77.0349741,15.8608131],[77.0256936,15.8393146],[77.0309615,15.8524122],[77.0275712,15.8356918],[77.0319271,15.8320379],[77.0651865,15.8278885],[77.0675039,15.7900649],[77.0608091,15.7861831],[77.0568394,15.7686312],[77.052226,15.7698082],[77.0563674,15.7626839],[77.0477628,15.7561581],[77.0460892,15.7403385],[77.0490932,15.7302596],[77.079606,15.7274713],[77.078855,15.716235],[77.0875239,15.7152848],[77.0785761,15.6952273],[77.1289372,15.6658501],[77.1213841,15.6309927],[77.0831895,15.6589803],[77.0722246,15.6468414],[77.0304036,15.6345056],[77.0329893,15.6051713],[77.0261335,15.5810208],[77.0297813,15.5021529],[76.975708,15.510651],[76.9746861,15.4979555],[77.000674,15.4729239],[77.0070201,15.4519274],[77.0252859,15.4427909],[77.0310688,15.4330801],[77.0346522,15.4216622],[77.0283115,15.4057599],[77.0466149,15.38726],[77.0404565,15.3642842],[77.0647734,15.3442287],[77.0621127,15.3279015],[77.1133536,15.33382],[77.1183103,15.2948085],[77.151677,15.292242],[77.1476,15.2727643],[77.167148,15.2683552],[77.1677917,15.2580876],[77.1436947,15.2571768],[77.1360987,15.2410084],[77.1261209,15.2402424],[77.1250051,15.2269092],[77.1474927,15.2238035],[77.161805,15.2010063],[77.1690362,15.1713106],[77.1627706,15.1573517],[77.1406907,15.1585322],[77.1344036,15.1482593],[77.1571653,15.1403978],[77.1562743,15.1229839],[77.1423912,15.1046714],[77.1300101,15.1004038],[77.1285724,15.0726623],[77.112844,15.0339341],[77.093811,15.0360064],[77.0910215,15.0294164],[77.0847773,15.0307012],[77.0825715,15.0060658],[77.0442652,15.0098523],[77.0495868,15.0330844],[77.004118,15.0337994],[76.9860828,15.0265358],[76.9853103,15.0155518],[76.9785511,15.0159352],[76.9496477,15.0307738],[76.907537,15.0328461],[76.8694818,15.0514756],[76.8772817,15.0306494],[76.8950915,15.0373845],[76.8360937,15.0796135],[76.8240237,15.0803749],[76.8003559,15.0961788],[76.7861938,15.0880601],[76.7823422,15.0775921],[76.7767525,15.0784118],[76.7734051,15.0591061],[76.790185,15.020733],[76.7748642,14.9931469],[76.7600837,14.989595],[76.7666888,14.9745434],[76.8173718,14.9692471],[76.8288731,14.9561249],[76.8415868,14.9660755],[76.8672502,14.9695166],[76.8695569,14.937767],[76.863817,14.8954581],[76.8457925,14.8917566],[76.8571114,14.8691521],[76.853646,14.8426977],[76.8419623,14.8367759],[76.8542683,14.8098404],[76.8372953,14.8110332],[76.8366408,14.7908995],[76.78231,14.7860863],[76.7905926,14.7577024],[76.8035531,14.7424559],[76.7752558,14.6810442],[76.7650366,14.602044],[76.7819881,14.5964582],[76.7913437,14.5543218],[76.8065142,14.5310592],[76.8234443,14.5265933],[76.831212,14.530706],[76.8356108,14.5210887],[76.8558454,14.5093521],[76.8680119,14.4739723],[76.8844377,14.476933],[76.8862134,14.4835657],[76.9007134,14.4892634],[76.9747853,14.4853005],[76.9598508,14.450535],[76.9447017,14.4508052],[76.9478345,14.4134002],[76.9425559,14.400307],[76.9156694,14.4207154],[76.8989968,14.3982702],[76.8852854,14.3920973],[76.8849635,14.3473651],[76.9034171,14.3224799],[76.9456779,14.31302],[76.9565409,14.2943119],[76.9247675,14.273658],[76.9401526,14.2445427],[76.9857502,14.2471841],[77.0056844,14.2358282],[77.0361972,14.2467265],[77.054286,14.2451875],[77.0619035,14.2296301],[77.0812797,14.2141757],[77.1009135,14.217275],[77.1167278,14.226323],[77.1151185,14.2546295],[77.1204185,14.2629274],[77.1106982,14.261534],[77.1099901,14.2681472],[77.1153116,14.2921234],[77.1308899,14.3076765],[77.1395802,14.3400474],[77.1667671,14.3422095],[77.1693206,14.3354322],[77.1786332,14.3355362],[77.1982455,14.3209206],[77.2457528,14.3173446],[77.2578549,14.3305466],[77.2866082,14.3402345],[77.2889256,14.3048279],[77.2835398,14.2828909],[77.3638434,14.2758136],[77.3593926,14.2343307],[77.3780608,14.2278206],[77.3870301,14.1998851],[77.3926949,14.1989491],[77.4146461,14.2047736],[77.4197531,14.2116172],[77.4178648,14.2258446],[77.4095392,14.2319388],[77.4050975,14.2666083],[77.3867082,14.2718696],[77.3891759,14.278628],[77.376709,14.3074477],[77.378962,14.3226255],[77.3889184,14.3327919],[77.4072861,14.3377606],[77.4285078,14.3280934],[77.4315119,14.3127081],[77.4460601,14.3173238],[77.4504161,14.2805827],[77.4789977,14.2921026],[77.4985671,14.2787528],[77.5033951,14.2594336],[77.4924409,14.2307637],[77.5033629,14.2105043],[77.5035131,14.1961303],[77.5170421,14.182858],[77.5036526,14.1572785],[77.4682259,14.1652055],[77.4669814,14.1721751],[77.393682,14.1742556],[77.3948407,14.1606491],[77.3849487,14.1531173],[77.3788762,14.1359722],[77.3519897,14.1311031],[77.3474192,14.103468],[77.3911071,14.1267125],[77.4013853,14.1198247],[77.3601007,14.062113],[77.340424,14.0601356],[77.332313,14.0306807],[77.3902917,14.0166077],[77.3793697,13.9899997],[77.381494,13.9761949],[77.3960209,13.9837741],[77.4267268,13.9861895],[77.4388718,13.9755077],[77.4350738,13.9473748],[77.4119854,13.945917],[77.4159121,13.9239871],[77.4348807,13.9195717],[77.4346447,13.9147605],[77.3989461,13.8884859],[77.3976087,13.9065333],[77.358427,13.9035443],[77.3477196,13.916031],[77.371602,13.9531641],[77.3495865,13.9585159],[77.3608303,13.9911449],[77.3363256,13.9959753],[77.3371839,14.0043034],[77.3220992,14.0300562],[77.3056197,14.0318465],[77.2983241,14.0219788],[77.2749781,14.0115695],[77.2788405,14.0324294],[77.2700858,14.0344903],[77.2454631,14.0118922],[77.2055754,14.0084804],[77.1748352,14.0131101],[77.1728611,14.0007224],[77.1409321,14.0038246],[77.1268344,14.0471468],[77.0793485,14.0425464],[77.0761299,14.0531417],[77.0315623,14.0569301],[77.0254898,14.0660053],[77.0297169,14.0881298],[77.0146751,14.1000966],[77.0262837,14.1249438],[77.0202327,14.131332],[77.0221424,14.177397],[77.0054912,14.1839502],[76.9830036,14.1785828],[76.9613313,14.1815162],[76.9474911,14.1980754],[76.942749,14.1955167],[76.9421482,14.173257],[76.9197678,14.1645397],[76.8945336,14.1678789],[76.8860149,14.1383651],[76.9128799,14.1289183],[76.9249177,14.1370543],[76.945796,14.118701],[76.9536066,14.0994931],[76.9482035,14.0919407],[76.9592929,14.0917928],[76.9749999,14.0810327],[76.9717812,14.0583663],[76.9325781,14.0551192],[76.9311189,14.0302436],[76.9437146,14.0295566],[76.9496369,14.0154418],[76.999172,13.9904057],[76.9938505,13.9625453],[77.014246,13.9548613],[77.0246422,13.9395236],[77.0414972,13.9334528],[77.0472264,13.9065958],[77.0229792,13.9026174],[77.0141559,13.8602332],[76.9919085,13.849018],[76.9903636,13.8374966],[76.9781327,13.8269539],[76.9764161,13.8172441],[76.989913,13.8128684],[76.9851279,13.7907383],[76.9966721,13.7478058],[77.0163501,13.7384026],[77.0244276,13.7792244],[77.0434284,13.7777969],[77.0643496,13.7439602],[77.0856356,13.7423449],[77.0837474,13.7563929],[77.0904207,13.7672515],[77.1367156,13.7583104],[77.1505237,13.7661781],[77.1729469,13.7620828],[77.178483,13.7830486],[77.1574759,13.8060129],[77.1686768,13.8295375],[77.1536565,13.8341005],[77.1559953,13.8442887],[77.1323275,13.8461429],[77.1281862,13.8565181],[77.1359968,13.8565389],[77.1476269,13.8684136],[77.1684623,13.8645179],[77.1690416,13.8899322],[77.1622825,13.8986807],[77.1699965,13.9205818],[77.1620572,13.9067624],[77.1622825,13.8986807],[77.1752009,13.9222652],[77.1847272,13.925143],[77.1907782,13.9119487],[77.1814441,13.8698718],[77.2004342,13.8631013],[77.2116887,13.8857869],[77.2169244,13.8839538],[77.2152614,13.8679761],[77.2199392,13.8676844],[77.2308183,13.9032215],[77.2358393,13.9040963],[77.2484135,13.9013052],[77.2461819,13.8678928],[77.2591424,13.863268],[77.2568464,13.8465804],[77.288475,13.8474346],[77.3110699,13.8665178],[77.3214125,13.8559556],[77.3256397,13.833017],[77.3369694,13.8328295],[77.3627186,13.8542264],[77.3757863,13.8516431],[77.3828029,13.8392675],[77.4324936,13.8432365],[77.4160194,13.8067005],[77.4287438,13.8067214],[77.4226713,13.7989279],[77.437005,13.7967191],[77.4452877,13.810993],[77.4645352,13.8080758],[77.4563491,13.7888628],[77.4612951,13.7883314],[77.4650931,13.7587168],[77.4704039,13.7579561],[77.4648678,13.7108171],[77.4499118,13.710963],[77.4553004,13.6822469],[77.4918508,13.6900638],[77.4848985,13.7147883],[77.5143599,13.7130893],[77.5123107,13.6971416],[77.5283396,13.693045],[77.5366974,13.7307452],[77.5220847,13.7445334],[77.5252712,13.7531936],[77.5473189,13.7531207],[77.5604081,13.7224803],[77.5719201,13.7382283],[77.5868225,13.7334237],[77.5997937,13.7506196],[77.6135051,13.7520577],[77.6245022,13.7351746],[77.630682,13.7360084],[77.6419473,13.7482748],[77.6189983,13.7553091],[77.6177323,13.7628018],[77.6516139,13.7841114],[77.6619136,13.7856118],[77.6733506,13.7623954],[77.6801741,13.786758],[77.6619136,13.7856118],[77.6743466,13.7604069],[77.7033806,13.7697941],[77.7085948,13.7409067],[77.717371,13.7410318],[77.722435,13.768627],[77.7193773,13.8002303],[77.7406633,13.8124516],[77.7815723,13.8182026],[77.7891362,13.8302667],[77.7822697,13.8441116],[77.8119671,13.8490492],[77.8213119,13.8644762],[77.8370404,13.8699343],[77.8274274,13.8743506],[77.83571,13.8810375],[77.8320408,13.8953688],[77.8167414,13.9029924],[77.8135443,13.9152395],[77.8149175,13.9317971],[77.8265476,13.9447716],[77.8414607,13.9357333],[77.895813,13.9410231],[77.8958022,13.9202902],[77.9267335,13.9053877],[77.9461527,13.9354209],[77.9600787,13.9403983],[77.9675674,13.9603068],[77.9874372,13.9555797],[77.9802489,13.9275693],[77.9844975,13.8977225],[77.9493928,13.8872659],[77.9529547,13.8271831],[77.9762149,13.8296208],[77.9921579,13.8689135],[78.0008912,13.8732257],[78.0165767,13.8649762],[78.0459738,13.8621638],[78.0489564,13.8962228],[78.0789757,13.8812041],[78.0821943,13.860893],[78.114869,13.8628461],[78.1254315,13.8318711],[78.1137156,13.807409],[78.1265902,13.7865705],[78.1138015,13.7636251],[78.1001544,13.7584355],[78.0917859,13.7423032],[78.1045532,13.7363419],[78.1210756,13.7154762],[78.1134152,13.692503],[78.0694699,13.6976523],[78.0736756,13.6877705],[78.0660224,13.6767024],[78.0769502,13.6736792],[78.0894449,13.6595384],[78.0872938,13.6434484],[78.0993504,13.6431904],[78.1139946,13.6572466],[78.1562752,13.6584936],[78.1692549,13.6538555],[78.1684492,13.6326385],[78.204123,13.6283986],[78.2024503,13.6041045],[78.1900665,13.5892994],[78.193121,13.5643932],[78.2191075,13.5927021],[78.2317296,13.5861859],[78.2371182,13.5988452],[78.2585158,13.5827199],[78.3250093,13.5949357],[78.3486557,13.586885],[78.3843183,13.5919845],[78.4019887,13.5879174],[78.4015596,13.5785524],[78.4067094,13.5769046],[78.3930945,13.5526663],[78.3856273,13.5155532],[78.3753598,13.5090437],[78.3788144,13.4821067],[78.3708,13.4695448],[78.3817649,13.3971969],[78.3650494,13.3619699],[78.3697379,13.3583999],[78.3776343,13.363212],[78.4086835,13.3428251],[78.3925366,13.3338054],[78.3850801,13.3348285],[78.387655,13.342846],[78.3829558,13.343608],[78.37713,13.332062],[78.3872151,13.3317175],[78.4011263,13.3153679],[78.4189081,13.3207033],[78.4281134,13.3312268],[78.440237,13.3283663],[78.4441638,13.3082374],[78.4834099,13.321194],[78.4794617,13.3012629],[78.4986877,13.2994775],[78.5052538,13.2907904],[78.5136115,13.2903831],[78.5217333,13.2730497],[78.5319686,13.2668678],[78.5391569,13.2876579],[78.5535872,13.2830531],[78.5615265,13.2884723],[78.5654962,13.3117768],[78.5775018,13.2951444],[78.5786068,13.2801712],[78.587265,13.2803904],[78.5852909,13.2622626],[78.5702169,13.2474753],[78.5670841,13.2252717],[78.5789931,13.2130934],[78.5709572,13.2119027],[78.5679209,13.2014054],[78.5501969,13.200225],[78.5501218,13.1894243],[78.567245,13.1922864],[78.5761607,13.186583],[78.579905,13.167414],[78.568511,13.1612085],[78.5500359,13.1636531],[78.540895,13.153603],[78.5484051,13.1484419],[78.5457659,13.1428629],[78.5175919,13.1324148],[78.5193515,13.1194587],[78.5385775,13.1056659],[78.5102105,13.0920186],[78.5161435,13.0628823],[78.4785926,13.0544481],[78.4744084,13.0437664],[78.4622741,13.0433692],[78.4635401,13.0060004],[78.4746981,12.9913962],[78.4675419,12.9750139],[78.4353661,12.98113],[78.436718,12.9623214],[78.4190798,12.9587038],[78.4201526,12.947767],[78.411119,12.9454457],[78.4183502,12.9228385],[78.4275985,12.9330653],[78.4665549,12.9053118],[78.4647471,12.8666985],[78.4641838,12.8774297],[78.4471679,12.8921137],[78.4449148,12.9120465],[78.4347438,12.9117537],[78.428564,12.9017561],[78.4120845,12.9030529],[78.3983516,12.9175263],[78.3964204,12.9076125],[78.3896398,12.9064621],[78.3527326,12.9388792],[78.3441067,12.9079681],[78.3234429,12.9019025],[78.3203745,12.8872818],[78.3343005,12.8891853],[78.3369398,12.8823244],[78.3310389,12.8756098],[78.3136797,12.8761746],[78.3123708,12.8583517],[78.2822442,12.8593768],[78.2683611,12.8676189],[78.2652283,12.8619499],[78.2531261,12.8617616],[78.2455454,12.7880736],[78.2313763,12.7621184],[78.2409303,12.7298647],[78.2307686,12.7125043],[78.2065474,12.7075517],[78.209583,12.7012562],[78.1994584,12.6945638],[78.2105026,12.6846881],[78.2375287,12.6860913],[78.2445169,12.7064726],[78.2720668,12.7044981],[78.3004582,12.6652508],[78.3192694,12.6613535],[78.3793054,12.6248415],[78.4124061,12.6268329],[78.4271049,12.6352714],[78.4649133,12.6238599],[78.4745049,12.6476035],[78.4678955,12.6758055],[78.4842521,12.6717271],[78.4995917,12.6765657],[78.5073352,12.6902591],[78.4964883,12.7028294],[78.5016811,12.7043889],[78.5029471,12.716634],[78.512249,12.7076124],[78.5197806,12.711893],[78.5203707,12.7186225],[78.5059941,12.7225156],[78.4929478,12.7353878],[78.4931946,12.7470768],[78.5137725,12.7345401],[78.5136652,12.7254145],[78.5183,12.7250587],[78.5210252,12.7360889],[78.5250163,12.715577],[78.5377621,12.7169584],[78.5444569,12.7105324],[78.5300803,12.7104487],[78.5352516,12.6909814],[78.5560226,12.7002966],[78.5549068,12.7071624],[78.5616874,12.7105953],[78.5539627,12.7174189],[78.5641336,12.7362982],[78.5552072,12.7392284],[78.563447,12.7498603],[78.5554647,12.7557621],[78.5925221,12.7826114],[78.6003542,12.8183921],[78.6076498,12.8218862],[78.6016202,12.8507578],[78.6131215,12.8678281],[78.6337101,12.9316223],[78.6569166,12.9320615],[78.6380124,12.964747],[78.6471534,12.9662944],[78.6210179,12.9911976],[78.6553931,13.0151576],[78.6562514,13.0311505],[78.7047672,13.0154712],[78.7141013,13.0686722],[78.7404084,13.0636557],[78.7514591,13.0548766],[78.7934732,13.0660595],[78.8131848,13.0891814],[78.8420192,13.0788672],[78.8708925,13.0821536],[78.8751197,13.0969927],[78.8901937,13.097233],[78.8957812,13.095054],[78.8889599,13.0732915],[78.8916635,13.0331364],[78.9292145,13.0364185],[78.9371323,13.0304397],[78.9408445,13.0364812],[78.929193,13.0456373],[78.9038408,13.0476231],[78.9131212,13.0662894],[78.921318,13.0650353],[78.9240432,13.0809414],[78.9417243,13.0785169],[78.9492774,13.0840347],[78.9550066,13.0760505],[78.9702844,13.0746083],[78.9724302,13.0838048],[78.9952612,13.0865845],[79.0632069,13.0533193],[79.0629816,13.0403067],[79.0808558,13.0255687],[79.0985799,13.0260914],[79.1146517,13.0393869],[79.1357231,13.0354987],[79.1632747,13.0202378],[79.1848826,13.0298962],[79.1931867,13.0467243],[79.1802692,13.0495044],[79.179604,13.0543749],[79.1920709,13.0559636],[79.1787028,13.0587227],[79.1804194,13.0645963],[79.1875434,13.0606249],[79.1921139,13.0672091],[79.1805267,13.0843273],[79.1907835,13.0885701],[79.198401,13.0814221],[79.2015123,13.0894061],[79.2344069,13.1051225],[79.2383766,13.1186019],[79.2303085,13.1264802],[79.2329049,13.1392688],[79.2099237,13.1484628],[79.2149234,13.1570297],[79.2271864,13.1555775],[79.2346215,13.1706525],[79.2425608,13.1711121],[79.2449641,13.1485673],[79.240222,13.1443047],[79.2451572,13.1384747],[79.2538476,13.1457673],[79.2521953,13.1578446],[79.2570877,13.1607906],[79.2620873,13.1488598],[79.2774939,13.1562566],[79.2806268,13.1526209],[79.2840761,13.1227813],[79.3127703,13.126104],[79.2943167,13.1094903],[79.3072128,13.1054778],[79.3190145,13.1132938],[79.3118047,13.1163867],[79.3241,13.1183093],[79.3187785,13.1235337],[79.3395495,13.1304088],[79.3412661,13.1369493],[79.3452787,13.1215066],[79.3607497,13.1235755],[79.3655133,13.1336059],[79.3562221,13.1645307],[79.3796754,13.1629218],[79.3799758,13.1706733],[79.369483,13.172888],[79.3726373,13.1788843],[79.3877864,13.1773382],[79.3742251,13.1894348],[79.3921208,13.192464],[79.3994379,13.1876172],[79.410274,13.1939473],[79.4387054,13.1883275],[79.4324183,13.1951799],[79.4437051,13.2075889],[79.436152,13.2129158],[79.4373965,13.2196213],[79.4539189,13.2168848],[79.4531035,13.2384834],[79.4311094,13.2297732],[79.4392526,13.2351832],[79.4314206,13.2362171],[79.4378793,13.2429637],[79.4185781,13.242995],[79.4235134,13.2500965],[79.4084501,13.2654058],[79.43362,13.2748875],[79.433856,13.287376],[79.4461083,13.2916152],[79.4456792,13.3004485],[79.4304228,13.3001562],[79.4188142,13.289694],[79.4158315,13.2994671],[79.3898892,13.2975459],[79.3886018,13.3095321],[79.381907,13.3077572],[79.3875932,13.3182395],[79.4021415,13.3175504],[79.3981933,13.3302872],[79.4053387,13.3351104],[79.413085,13.3298905],[79.4316244,13.3368016],[79.435633,13.3517293],[79.4564544,13.3384904],[79.4996452,13.3478045],[79.4973492,13.332417],[79.5260811,13.344464],[79.537282,13.3385345],[79.5437836,13.3153579],[79.5348358,13.2993418],[79.5410156,13.292012],[79.5347714,13.2752216],[79.5581281,13.2728095],[79.5804977,13.2573231],[79.5913124,13.2614689],[79.5987368,13.2857993],[79.6087575,13.2875117],[79.6061718,13.2795864],[79.6144223,13.282531],[79.6318459,13.2697917],[79.6381545,13.287543],[79.6413088,13.2757437],[79.6424676,13.2902185],[79.6520161,13.2918658],[79.6580672,13.2838676],[79.6640754,13.2897775],[79.6652984,13.2786675],[79.6740961,13.2815704],[79.6784305,13.2974415],[79.683001,13.2956352],[79.6811664,13.2878981],[79.6940195,13.2798788],[79.6887624,13.2707732],[79.6957791,13.2670871],[79.6912086,13.260905],[79.6877217,13.2666276],[79.6783554,13.2618031],[79.6842885,13.2443318],[79.6956611,13.2384207],[79.6981823,13.2510155],[79.7090828,13.251026],[79.7141254,13.2357158],[79.7061002,13.2342223],[79.7025597,13.2223786],[79.7165179,13.2164566],[79.7216463,13.2234649],[79.7314954,13.2223786],[79.7302616,13.2324677],[79.7371173,13.2362275],[79.7543585,13.2062624],[79.7644758,13.2191617],[79.7755372,13.215245],[79.7855365,13.228405],[79.7944897,13.2263161],[79.7947311,13.2419298],[79.7612357,13.2574067],[79.7305298,13.282719],[79.7390914,13.2914273],[79.7559035,13.2944761],[79.7611713,13.3184587],[79.791652,13.2935678],[79.8017478,13.3005321],[79.8090649,13.3172998],[79.8629773,13.317091],[79.8681057,13.3309972],[79.8829114,13.3232507],[79.8833643,13.3328696],[79.9146795,13.3481595],[79.9159884,13.359997],[79.933176,13.351834],[79.9454284,13.3635147],[79.9493873,13.3754663],[79.9450207,13.381802],[79.9578845,13.3789525],[79.9627125,13.3917592],[79.9443447,13.3968212],[79.9457717,13.4077588],[79.9344528,13.4166191],[79.9418557,13.4169531],[79.9399567,13.4250304],[79.9566185,13.4220771],[79.973216,13.4295073],[79.9723792,13.4689919],[79.9823999,13.4705152],[79.9839449,13.4796132],[80.0075698,13.4785073],[80.0157881,13.4979125],[80.0466656,13.493656],[80.0485325,13.512601],[80.0354433,13.5185888],[80.026946,13.5136441],[80.0174188,13.5298755],[80.000601,13.5256724],[80.0018317,13.5464009],[80.0569975,13.5367077],[80.064379,13.5459597],[80.0814914,13.5488802],[80.0879502,13.5376152],[80.0783157,13.529646],[80.0774789,13.4893785],[80.0987649,13.4884396],[80.1046872,13.4945323],[80.1072407,13.4896081],[80.1126909,13.5059245],[80.1382684,13.5045474],[80.1511001,13.4901297],[80.208714,13.4865617],[80.20998,13.4907139],[80.2417803,13.4725393],[80.2679813,13.5639111],[80.2428263,13.6154941],[80.2342433,13.6563969],[80.2363622,13.7072836],[80.2525949,13.7799955],[80.2190003,13.8795533],[80.1509982,14.0299573],[80.1333493,14.0995399],[80.1270515,14.1582356],[80.13991,14.2742974],[80.1681523,14.3526219],[80.1799607,14.51037],[80.1941335,14.5883078],[80.1692882,14.6163944],[80.1421013,14.7080475],[80.1276523,14.7324068],[80.1117951,14.744256],[80.0987649,14.7773412],[80.0877088,14.8276906],[80.084694,14.8828914],[80.0554687,14.9966083],[80.0480068,15.0820842],[80.0640893,15.1478192],[80.0847101,15.189959],[80.0845948,15.2692039],[80.1099844,15.3442436],[80.1343498,15.3849584],[80.205313,15.4740147],[80.2177638,15.5180375],[80.2306598,15.5404743],[80.2261054,15.5566349],[80.237537,15.5999089],[80.2703351,15.6690524],[80.3434011,15.7481813],[80.4314506,15.8042646],[80.5430924,15.8519039],[80.6281328,15.8729632],[80.6385624,15.8739738],[80.6400405,15.8661858],[80.6401893,15.8756114],[80.6575081,15.8782032],[80.7234547,15.8766133],[80.7713939,15.8634133],[80.790634,15.8430105],[80.8020401,15.8459719],[80.8123398,15.8287039],[80.8094566,15.8140538],[80.799205,15.8168209],[80.7955396,15.8080645],[80.8139403,15.7398911],[80.804932,15.7416462],[80.7931543,15.76035],[80.7885599,15.7836473],[80.7851316,15.7802886],[80.7716491,15.8167495],[80.7687002,15.8070936],[80.7858503,15.7589254],[80.8258689,15.7158115],[80.8700288,15.7151196],[80.9223128,15.7255776],[80.9397282,15.720266],[81.0146964,15.7689306],[81.009009,15.8340621],[81.0626916,15.9038722],[81.1389754,15.9762244],[81.1371181,16.0169952],[81.2082616,16.1409421],[81.2016126,16.1461239],[81.2131984,16.195078],[81.2239296,16.2149537],[81.2400744,16.2241317],[81.2250852,16.2148781],[81.2288021,16.225728],[81.2186672,16.2126527],[81.2189333,16.2255944],[81.2359731,16.2309219],[81.2699233,16.2779202],[81.304536,16.3031606],[81.3917585,16.3422907],[81.484665,16.3521771],[81.6814667,16.3329762],[81.6907901,16.3197186],[81.7226605,16.3103497],[81.8533534,16.3727785],[81.9411716,16.3944174],[82.2980529,16.5702334],[82.3176438,16.5936984],[82.3120218,16.6183917],[82.3180246,16.6444875],[82.3669817,16.7293269],[82.3666531,16.7411424],[82.3423107,16.7441181],[82.3399678,16.7513623],[82.3556641,16.8508895],[82.3537114,16.8469645],[82.3355341,16.8556822],[82.3133803,16.850261],[82.2961163,16.8692353],[82.2708178,16.8771409],[82.2483945,16.9078154],[82.2541022,16.9380872],[82.2450285,16.9402372],[82.2702911,16.9423418],[82.2736488,16.9491047],[82.2684748,16.9571538],[82.2791406,16.9572737],[82.2838544,16.9763894],[82.27718,16.9832793],[82.2853151,16.9824687],[82.2812703,16.9844426],[82.2938472,17.0228722],[82.317751,17.057877],[82.4579394,17.1873812],[82.5824636,17.2743758],[82.7403867,17.3609811],[82.9914361,17.4722837],[83.0058771,17.4959364],[83.0203262,17.5070076],[83.1029409,17.5426571],[83.1621145,17.5604153],[83.1737504,17.5737038],[83.2130925,17.5910724],[83.2478224,17.6236991],[83.2383066,17.615382],[83.2287191,17.62181],[83.2313517,17.6274786],[83.2431614,17.634521],[83.2469192,17.628266],[83.2444409,17.6354361],[83.2821071,17.660247],[83.295262,17.6764156],[83.2980703,17.6861635],[83.2686639,17.6949847],[83.2782179,17.6943356],[83.2714722,17.7052771],[83.2628649,17.7035984],[83.263844,17.7120814],[83.2729453,17.7117302],[83.2799815,17.6951336],[83.2834482,17.7118055],[83.283845,17.691994],[83.288818,17.6919681],[83.2835542,17.6893808],[83.2950515,17.6894012],[83.2983684,17.6949747],[83.3062658,17.6882079],[83.3080757,17.6974602],[83.3003897,17.6965396],[83.3455387,17.7258604],[83.343747,17.7383788],[83.3562576,17.7586198]]]}}